[Satellite]
VERSION=1.1
NAME=WEOS
NICKNAME=WEOS
TLE1=1 27599U 02056C   11060.11654373 -.00000022  00000-0  77541-5 0  3171
TLE2=2 27599  98.3097 101.1628 0009449 206.2759 153.7944 14.28629941428166
